IRIDIUM 155             
1 43573U 18061E   25041.59187936  .00000358  00000+0  12060-3 0  9995
2 43573  86.3923 262.0815 0002358  91.2108 268.9358 14.34219715342892
IRIDIUM 154             
1 43574U 18061F   25041.57285261  .00000456  00000+0  15581-3 0  9994
2 43574  86.3927 262.1989 0002054  85.3099 274.8331 14.34218284342949
IRIDIUM 163             
1 43575U 18061G   25041.55381975  .00000438  00000+0  14926-3 0  9994
2 43575  86.3925 262.1376 0002003  91.3690 268.7735 14.34221346342916
IRIDIUM 156             
1 43576U 18061H   25041.59822070 -.00000021  00000+0 -14647-4 0  9996
2 43576  86.3925 262.1259 0002342  86.9962 273.1502 14.34213023342910
IRIDIUM 164             
1 43577U 18061J   25041.57919470  .00000497  00000+0  17032-3 0  9991
2 43577  86.3926 262.1663 0002008  80.4971 279.6452 14.34216910342956
IRIDIUM 159             
1 43578U 18061K   25041.54748057  .00000149  00000+0  46179-4 0  9999
2 43578  86.3927 262.1267 0001721  86.9907 273.1486 14.34218276342918
IRIDIUM 180             
1 43922U 19002A   25041.47720956  .00000576  00000+0  19869-3 0  9997
2 43922  86.3995 199.0562 0001995  91.5193 268.6231 14.34217350318512
IRIDIUM 176             
1 43923U 19002B   25041.48059634  .00002570  00000+0  40351-3 0  9993
2 43923  86.6120 199.0583 0001314 112.3319 247.8037 14.72263072326905
IRIDIUM 168             
1 43924U 19002C   25041.47086579  .00000143  00000+0  43917-4 0  9997
2 43924  86.4002 199.1229 0001917  93.6245 266.5170 14.34217826318494
IRIDIUM 173             
1 43925U 19002D   25041.38840715  .00000655  00000+0  22692-3 0  9992
2 43925  86.3997 199.0664 0002050  96.7201 263.4228 14.34220428318463
IRIDIUM 169             
1 43926U 19002E   25041.56253811  .00000147  00000+0  41684-4 0  9997
2 43926  86.4200 230.5877 0003287 114.9429 245.2111 14.38585128319541
IRIDIUM 172             
1 43927U 19002F   25041.52160781 -.00000057  00000+0 -27590-4 0  9999
2 43927  86.4000 199.0176 0001760  95.3610 264.7786 14.34217540318492
IRIDIUM 175             
1 43928U 19002G   25041.33941361  .00002642  00000+0  41501-3 0  9997
2 43928  86.1559 158.8751 0003193  91.6076 268.5506 14.72245559326874
IRIDIUM 171             
1 43929U 19002H   25041.50257979  .00000689  00000+0  23891-3 0  9993
2 43929  86.4006 199.2765 0002199  83.3595 276.7851 14.34218385318485
IRIDIUM 170             
1 43930U 19002J   25041.48678166  .00001968  00000+0  30821-3 0  9999
2 43930  86.6127 199.0610 0002208 101.2706 258.8759 14.72258505326910
IRIDIUM 167             
1 43931U 19002K   25041.49623364  .00000326  00000+0  10949-3 0  9997
2 43931  86.3998 199.0460 0002449  90.4872 269.6604 14.34215061318487
IRIDIUM 181             
1 56726U 23068S   25041.56112202  .00000676  00000+0  19473-3 0  9991
2 56726  86.4463 262.1362 0002391  78.2356 281.9113 14.43309060 91529
IRIDIUM 177             
1 56727U 23068T   25041.52089405  .00003602  00000+0  47042-3 0  9991
2 56727  86.1985 202.1937 0002264  98.3751 261.7726 14.80235317 93633
IRIDIUM 174             
1 56728U 23068U   25041.51544152  .00003487  00000+0  45517-3 0  9992
2 56728  86.1990 202.3187 0002204  85.9474 274.1999 14.80249349 93637
IRIDIUM 178             
1 56729U 23068V   25041.57763805  .00001006  00000+0  12892-3 0  9992
2 56729  86.5752 231.0202 0002315  66.5868 293.5597 14.80242715 93640
IRIDIUM 179             
1 56730U 23068W   25041.57220771  .00000619  00000+0  77996-4 0  9990
2 56730  86.6755 238.1567 0002089  86.3094 273.8366 14.80240941 93641
